{"type": "FeatureCollection", "features": [ {"type": "Feature", "properties": {"norad_id": 33779, "name": "COSMOS 2251 DEB", "group": "cosmos-2251-debris", "lat": 27.952917762513415, "lon": 166.91099313679624, "alt_km": 668.6460267876773, "timestamp": "2025-12-19T04:59:48.699234+00:00", "meta": {"OBJECT_NAME": "COSMOS 2251 DEB", "OBJECT_ID": "1993-036U", "EPOCH": "2025-12-18T21:15:18.405216", "MEAN_MOTION": 14.7059413, "ECCENTRICITY": 0.00165291, "INCLINATION": 74.044, "RA_OF_ASC_NODE": 158.8038, "ARG_OF_PERICENTER": 191.5709, "MEAN_ANOMALY": 290.726, "EPHEMERIS_TYPE": 0, "CLASSIFICATION_TYPE": "U", "NORAD_CAT_ID": 33779, "ELEMENT_SET_NO": 999, "REV_AT_EPOCH": 88618, "BSTAR": 0.0017431402, "MEAN_MOTION_DOT": 0.00010604, "MEAN_MOTION_DDOT": 0}, "tle": {"line1": "1 33779U 93036U   25352.88562969  .00010604  00000+0  17431-2 0  9998", "line2": "2 33779  74.0440 158.8038 0016529 191.5709 290.7260 14.70594130886189"}}, "geometry": {"type": "Point", "coordinates": [166.91099313679624, 27.952917762513415]}}, {"type": "Feature", "properties": {"norad_id": 33782, "name": "COSMOS 2251 DEB", "group": "cosmos-2251-debris", "lat": 9.143832942494704, "lon": 82.94256461873475, "alt_km": 772.2913603644965, "timestamp": "2025-12-19T04:59:48.699244+00:00", "meta": {"OBJECT_NAME": "COSMOS 2251 DEB", "OBJECT_ID": "1993-036X", "EPOCH": "2025-12-18T20:08:17.003616", "MEAN_MOTION": 14.40462969, "ECCENTRICITY": 0.00209672, "INCLINATION": 74.033, "RA_OF_ASC_NODE": 266.2663, "ARG_OF_PERICENTER": 330.251, "MEAN_ANOMALY": 86.8637, "EPHEMERIS_TYPE": 0, "CLASSIFICATION_TYPE": "U", "NORAD_CAT_ID": 33782, "ELEMENT_SET_NO": 999, "REV_AT_EPOCH": 88214, "BSTAR": 0.00029099627, "MEAN_MOTION_DOT": 9.01e-06, "MEAN_MOTION_DDOT": 0}, "tle": {"line1": "1 33782U 93036X   25352.83908569  .00000901  00000+0  29100-3 0  9993", "line2": "2 33782  74.0330 266.2663 0020967 330.2510  86.8637 14.40462969882147"}}, "geometry": {"type": "Point", "coordinates": [82.94256461873475, 9.143832942494704]}}, {"type": "Feature", "properties": {"norad_id": 33785, "name": "COSMOS 2251 DEB", "group": "cosmos-2251-debris", "lat": 3.2982363964214394, "lon": 48.20203769241206, "alt_km": 646.0054511959315, "timestamp": "2025-12-19T04:59:48.699255+00:00", "meta": {"OBJECT_NAME": "COSMOS 2251 DEB", "OBJECT_ID": "1993-036AA", "EPOCH": "2025-12-18T15:01:04.316160", "MEAN_MOTION": 14.70614242, "ECCENTRICITY": 0.00228389, "INCLINATION": 73.8674, "RA_OF_ASC_NODE": 48.3878, "ARG_OF_PERICENTER": 346.612, "MEAN_ANOMALY": 174.4535, "EPHEMERIS_TYPE": 0, "CLASSIFICATION_TYPE": "U", "NORAD_CAT_ID": 33785, "ELEMENT_SET_NO": 999, "REV_AT_EPOCH": 88593, "BSTAR": 0.0014171388, "MEAN_MOTION_DOT": 8.631e-05, "MEAN_MOTION_DDOT": 0}, "tle": {"line1": "1 33785U 93036AA  25352.62574440  .00008631  00000+0  14171-2 0  9999", "line2": "2 33785  73.8674  48.3878 0022838 346.6120 174.4535 14.70614242885939"}}, "geometry": {"type": "Point", "coordinates": [48.20203769241206, 3.2982363964214394]}}, {"type": "Feature", "properties": {"norad_id": 33789, "name": "COSMOS 2251 DEB", "group": "cosmos-2251-debris", "lat": 69.20331602838884, "lon": 125.21445753375315, "alt_km": 993.9369039088369, "timestamp": "2025-12-19T04:59:48.699265+00:00", "meta": {"OBJECT_NAME": "COSMOS 2251 DEB", "OBJECT_ID": "1993-036AE", "EPOCH": "2025-12-18T17:06:20.566656", "MEAN_MOTION": 13.88808828, "ECCENTRICITY": 0.02399295, "INCLINATION": 74.0645, "RA_OF_ASC_NODE": 77.2691, "ARG_OF_PERICENTER": 191.5866, "MEAN_ANOMALY": 291.2114, "EPHEMERIS_TYPE": 0, "CLASSIFICATION_TYPE": "U", "NORAD_CAT_ID": 33789, "ELEMENT_SET_NO": 999, "REV_AT_EPOCH": 85178, "BSTAR": 0.0005424512, "MEAN_MOTION_DOT": 8.01e-06, "MEAN_MOTION_DDOT": 0}, "tle": {"line1": "1 33789U 93036AE  25352.71273804  .00000801  00000+0  54245-3 0  9991", "line2": "2 33789  74.0645  77.2691 0239929 191.5866 291.2114 13.88808828851783"}}, "geometry": {"type": "Point", "coordinates": [125.21445753375315, 69.20331602838884]}}, {"type": "Feature", "properties": {"norad_id": 33791, "name": "COSMOS 2251 DEB", "group": "cosmos-2251-debris", "lat": 41.4035303116769, "lon": -168.81220654873198, "alt_km": 742.5425006436017, "timestamp": "2025-12-19T04:59:48.699276+00:00", "meta": {"OBJECT_NAME": "COSMOS 2251 DEB", "OBJECT_ID": "1993-036AG", "EPOCH": "2025-12-18T12:17:52.846080", "MEAN_MOTION": 14.43153563, "ECCENTRICITY": 0.0030328, "INCLINATION": 74.175, "RA_OF_ASC_NODE": 26.9509, "ARG_OF_PERICENTER": 223.1639, "MEAN_ANOMALY": 260.3001, "EPHEMERIS_TYPE": 0, "CLASSIFICATION_TYPE": "U", "NORAD_CAT_ID": 33791, "ELEMENT_SET_NO": 999, "REV_AT_EPOCH": 88135, "BSTAR": 0.00065881736, "MEAN_MOTION_DOT": 2.2e-05, "MEAN_MOTION_DDOT": 0}, "tle": {"line1": "1 33791U 93036AG  25352.51241720  .00002200  00000+0  65882-3 0  9998", "line2": "2 33791  74.1750  26.9509 0030328 223.1639 260.3001 14.43153563881354"}}, "geometry": {"type": "Point", "coordinates": [-168.81220654873198, 41.4035303116769]}}, {"type": "Feature", "properties": {"norad_id": 33792, "name": "COSMOS 2251 DEB", "group": "cosmos-2251-debris", "lat": 73.21305691817543, "lon": 48.21069278174082, "alt_km": 854.5150908793512, "timestamp": "2025-12-19T04:59:48.699287+00:00", "meta": {"OBJECT_NAME": "COSMOS 2251 DEB", "OBJECT_ID": "1993-036AH", "EPOCH": "2025-12-18T23:32:08.015712", "MEAN_MOTION": 13.45833478, "ECCENTRICITY": 0.04274314, "INCLINATION": 73.901, "RA_OF_ASC_NODE": 335.3777, "ARG_OF_PERICENTER": 38.8794, "MEAN_ANOMALY": 20.753, "EPHEMERIS_TYPE": 0, "CLASSIFICATION_TYPE": "U", "NORAD_CAT_ID": 33792, "ELEMENT_SET_NO": 999, "REV_AT_EPOCH": 82526, "BSTAR": 0.0008254197, "MEAN_MOTION_DOT": 8.36e-06, "MEAN_MOTION_DDOT": 0}, "tle": {"line1": "1 33792U 93036AH  25352.98064833  .00000836  00000+0  82542-3 0  9993", "line2": "2 33792  73.9010 335.3777 0427431  38.8794  20.7530 13.45833478825267"}}, "geometry": {"type": "Point", "coordinates": [48.21069278174082, 73.21305691817543]}}, {"type": "Feature", "properties": {"norad_id": 33793, "name": "COSMOS 2251 DEB", "group": "cosmos-2251-debris", "lat": 22.330771202916576, "lon": 144.93869931869682, "alt_km": 804.4703407432398, "timestamp": "2025-12-19T04:59:48.699297+00:00", "meta": {"OBJECT_NAME": "COSMOS 2251 DEB", "OBJECT_ID": "1993-036AJ", "EPOCH": "2025-12-18T19:22:11.726688", "MEAN_MOTION": 14.27742034, "ECCENTRICITY": 0.00787034, "INCLINATION": 73.9804, "RA_OF_ASC_NODE": 138.8902, "ARG_OF_PERICENTER": 287.792, "MEAN_ANOMALY": 193.7999, "EPHEMERIS_TYPE": 0, "CLASSIFICATION_TYPE": "U", "NORAD_CAT_ID": 33793, "ELEMENT_SET_NO": 999, "REV_AT_EPOCH": 87293, "BSTAR": 0.00054070884, "MEAN_MOTION_DOT": 1.353e-05, "MEAN_MOTION_DDOT": 0}, "tle": {"line1": "1 33793U 93036AJ  25352.80708017  .00001353  00000+0  54071-3 0  9995", "line2": "2 33793  73.9804 138.8902 0078703 287.7920 193.7999 14.27742034872939"}}, "geometry": {"type": "Point", "coordinates": [144.93869931869682, 22.330771202916576]}}, {"type": "Feature", "properties": {"norad_id": 33795, "name": "COSMOS 2251 DEB", "group": "cosmos-2251-debris", "lat": -18.492672423561, "lon": 57.977320626911116, "alt_km": 574.4598059658192, "timestamp": "2025-12-19T04:59:48.699307+00:00", "meta": {"OBJECT_NAME": "COSMOS 2251 DEB", "OBJECT_ID": "1993-036AL", "EPOCH": "2025-12-18T21:38:40.278048", "MEAN_MOTION": 15.05717783, "ECCENTRICITY": 0.00307274, "INCLINATION": 74.0325, "RA_OF_ASC_NODE": 64.1006, "ARG_OF_PERICENTER": 145.3182, "MEAN_ANOMALY": 335.7566, "EPHEMERIS_TYPE": 0, "CLASSIFICATION_TYPE": "U", "NORAD_CAT_ID": 33795, "ELEMENT_SET_NO": 999, "REV_AT_EPOCH": 90114, "BSTAR": 0.00091133666, "MEAN_MOTION_DOT": 0.00013309, "MEAN_MOTION_DDOT": 0}, "tle": {"line1": "1 33795U 93036AL  25352.90185507  .00013309  00000+0  91134-3 0  9996", "line2": "2 33795  74.0325  64.1006 0030727 145.3182 335.7566 15.05717783901144"}}, "geometry": {"type": "Point", "coordinates": [57.977320626911116, -18.492672423561]}}, {"type": "Feature", "properties": {"norad_id": 33797, "name": "COSMOS 2251 DEB", "group": "cosmos-2251-debris", "lat": 47.950729482317264, "lon": -175.82426455452148, "alt_km": 655.3656751781164, "timestamp": "2025-12-19T04:59:48.699318+00:00", "meta": {"OBJECT_NAME": "COSMOS 2251 DEB", "OBJECT_ID": "1993-036AN", "EPOCH": "2025-12-18T19:04:08.154048", "MEAN_MOTION": 14.57868188, "ECCENTRICITY": 0.00604752, "INCLINATION": 74.0467, "RA_OF_ASC_NODE": 23.4519, "ARG_OF_PERICENTER": 109.5052, "MEAN_ANOMALY": 9.4653, "EPHEMERIS_TYPE": 0, "CLASSIFICATION_TYPE": "U", "NORAD_CAT_ID": 33797, "ELEMENT_SET_NO": 999, "REV_AT_EPOCH": 89073, "BSTAR": 0.00027517264, "MEAN_MOTION_DOT": 1.263e-05, "MEAN_MOTION_DDOT": 0}, "tle": {"line1": "1 33797U 93036AN  25352.79453882  .00001263  00000+0  27517-3 0  9999", "line2": "2 33797  74.0467  23.4519 0060475 109.5052   9.4653 14.57868188890737"}}, "geometry": {"type": "Point", "coordinates": [-175.82426455452148, 47.950729482317264]}}, {"type": "Feature", "properties": {"norad_id": 33798, "name": "COSMOS 2251 DEB", "group": "cosmos-2251-debris", "lat": 56.71362686805575, "lon": 149.71924102089372, "alt_km": 803.1885511592081, "timestamp": "2025-12-19T04:59:48.699328+00:00", "meta": {"OBJECT_NAME": "COSMOS 2251 DEB", "OBJECT_ID": "1993-036AP", "EPOCH": "2025-12-18T19:04:37.157664", "MEAN_MOTION": 14.44621817, "ECCENTRICITY": 0.00924199, "INCLINATION": 74.0289, "RA_OF_ASC_NODE": 124.6267, "ARG_OF_PERICENTER": 244.6799, "MEAN_ANOMALY": 187.0164, "EPHEMERIS_TYPE": 0, "CLASSIFICATION_TYPE": "U", "NORAD_CAT_ID": 33798, "ELEMENT_SET_NO": 999, "REV_AT_EPOCH": 88681, "BSTAR": 0.00013907295, "MEAN_MOTION_DOT": 4.78e-06, "MEAN_MOTION_DDOT": 0}, "tle": {"line1": "1 33798U 93036AP  25352.79487451  .00000478  00000+0  13907-3 0  9994", "line2": "2 33798  74.0289 124.6267 0092419 244.6799 187.0164 14.44621817886812"}}, "geometry": {"type": "Point", "coordinates": [149.71924102089372, 56.71362686805575]}}]}